[{"OBJECT_NAME":"SL-16 R/B","OBJECT_ID":"1993-059B","EPOCH":"2026-03-31T01:47:37.233600","MEAN_MOTION":14.17234538,"ECCENTRICITY":0.00172963,"INCLINATION":70.9914,"RA_OF_ASC_NODE":326.0327,"ARG_OF_PERICENTER":185.3137,"MEAN_ANOMALY":174.7806,"EPHEMERIS_TYPE":0,"CLASSIFICATION_TYPE":"U","NORAD_CAT_ID":22803,"ELEMENT_SET_NO":999,"REV_AT_EPOCH":68256,"BSTAR":-5.3684701e-5,"MEAN_MOTION_DOT":-1.57e-6,"MEAN_MOTION_DDOT":0},{"OBJECT_NAME":"ARIANE 40 R/B","OBJECT_ID":"1993-061H","EPOCH":"2026-03-31T04:57:04.067712","MEAN_MOTION":14.32872558,"ECCENTRICITY":0.00101338,"INCLINATION":98.4876,"RA_OF_ASC_NODE":158.6652,"ARG_OF_PERICENTER":214.9577,"MEAN_ANOMALY":145.0943,"EPHEMERIS_TYPE":0,"CLASSIFICATION_TYPE":"U","NORAD_CAT_ID":22830,"ELEMENT_SET_NO":999,"REV_AT_EPOCH":69718,"BSTAR":0.00011509537,"MEAN_MOTION_DOT":2.71e-6,"MEAN_MOTION_DDOT":0},{"OBJECT_NAME":"COSMOS 2278","OBJECT_ID":"1994-023A","EPOCH":"2026-03-31T05:44:22.115040","MEAN_MOTION":14.1437496,"ECCENTRICITY":0.00092272,"INCLINATION":71.0511,"RA_OF_ASC_NODE":130.0149,"ARG_OF_PERICENTER":340.5501,"MEAN_ANOMALY":19.5268,"EPHEMERIS_TYPE":0,"CLASSIFICATION_TYPE":"U","NORAD_CAT_ID":23087,"ELEMENT_SET_NO":999,"REV_AT_EPOCH":64785,"BSTAR":-4.2927641e-5,"MEAN_MOTION_DOT":-1.29e-6,"MEAN_MOTION_DDOT":0},{"OBJECT_NAME":"SL-16 R/B","OBJECT_ID":"1994-023B","EPOCH":"2026-03-31T04:55:32.653920","MEAN_MOTION":14.15017188,"ECCENTRICITY":0.00055018,"INCLINATION":71.0024,"RA_OF_ASC_NODE":25.7006,"ARG_OF_PERICENTER":266.0877,"MEAN_ANOMALY":93.9617,"EPHEMERIS_TYPE":0,"CLASSIFICATION_TYPE":"U","NORAD_CAT_ID":23088,"ELEMENT_SET_NO":999,"REV_AT_EPOCH":64913,"BSTAR":0.00018593875,"MEAN_MOTION_DOT":3.12e-6,"MEAN_MOTION_DDOT":0},{"OBJECT_NAME":"SL-16 R/B","OBJECT_ID":"1994-074B","EPOCH":"2026-03-31T02:22:42.876768","MEAN_MOTION":14.7943261,"ECCENTRICITY":0.00074447,"INCLINATION":97.7076,"RA_OF_ASC_NODE":120.047,"ARG_OF_PERICENTER":141.9004,"MEAN_ANOMALY":282.1094,"EPHEMERIS_TYPE":0,"CLASSIFICATION_TYPE":"U","NORAD_CAT_ID":23343,"ELEMENT_SET_NO":999,"REV_AT_EPOCH":69041,"BSTAR":9.0551592e-5,"MEAN_MOTION_DOT":6.27e-6,"MEAN_MOTION_DDOT":0},{"OBJECT_NAME":"SL-16 R/B","OBJECT_ID":"1994-077B","EPOCH":"2026-03-31T00:53:26.474208","MEAN_MOTION":14.15569067,"ECCENTRICITY":0.00018182,"INCLINATION":70.983,"RA_OF_ASC_NODE":307.5799,"ARG_OF_PERICENTER":195.4629,"MEAN_ANOMALY":164.6438,"EPHEMERIS_TYPE":0,"CLASSIFICATION_TYPE":"U","NORAD_CAT_ID":23405,"ELEMENT_SET_NO":999,"REV_AT_EPOCH":61925,"BSTAR":-3.6084101e-5,"MEAN_MOTION_DOT":-1.19e-6,"MEAN_MOTION_DDOT":0},{"OBJECT_NAME":"ARIANE 40+ R/B","OBJECT_ID":"1995-021B","EPOCH":"2026-03-31T05:20:29.883840","MEAN_MOTION":14.39788097,"ECCENTRICITY":0.00078926,"INCLINATION":98.4459,"RA_OF_ASC_NODE":161.4094,"ARG_OF_PERICENTER":81.0682,"MEAN_ANOMALY":346.3847,"EPHEMERIS_TYPE":0,"CLASSIFICATION_TYPE":"U","NORAD_CAT_ID":23561,"ELEMENT_SET_NO":999,"REV_AT_EPOCH":62234,"BSTAR":0.00013598906,"MEAN_MOTION_DOT":3.83e-6,"MEAN_MOTION_DDOT":0},{"OBJECT_NAME":"SL-16 R/B","OBJECT_ID":"1995-058B","EPOCH":"2026-03-31T04:28:31.386432","MEAN_MOTION":14.15498443,"ECCENTRICITY":0.00101754,"INCLINATION":71.0198,"RA_OF_ASC_NODE":135.1258,"ARG_OF_PERICENTER":86.1525,"MEAN_ANOMALY":274.0761,"EPHEMERIS_TYPE":0,"CLASSIFICATION_TYPE":"U","NORAD_CAT_ID":23705,"ELEMENT_SET_NO":999,"REV_AT_EPOCH":57089,"BSTAR":-7.6627861e-5,"MEAN_MOTION_DOT":-1.97e-6,"MEAN_MOTION_DDOT":0},{"OBJECT_NAME":"SL-16 R/B","OBJECT_ID":"1996-051B","EPOCH":"2026-03-31T04:47:47.738976","MEAN_MOTION":14.12422015,"ECCENTRICITY":0.00133476,"INCLINATION":70.7584,"RA_OF_ASC_NODE":129.712,"ARG_OF_PERICENTER":113.08,"MEAN_ANOMALY":247.1728,"EPHEMERIS_TYPE":0,"CLASSIFICATION_TYPE":"U","NORAD_CAT_ID":24298,"ELEMENT_SET_NO":999,"REV_AT_EPOCH":52468,"BSTAR":0.00010602044,"MEAN_MOTION_DOT":1.47e-6,"MEAN_MOTION_DDOT":0},{"OBJECT_NAME":"ORBVIEW 2 (SEASTAR)","OBJECT_ID":"1997-037A","EPOCH":"2026-03-30T22:56:13.510752","MEAN_MOTION":14.35510016,"ECCENTRICITY":0.00022948,"INCLINATION":98.8604,"RA_OF_ASC_NODE":254.8351,"ARG_OF_PERICENTER":24.7885,"MEAN_ANOMALY":335.3409,"EPHEMERIS_TYPE":0,"CLASSIFICATION_TYPE":"U","NORAD_CAT_ID":24883,"ELEMENT_SET_NO":999,"REV_AT_EPOCH":51152,"BSTAR":0.00014292668,"MEAN_MOTION_DOT":3.64e-6,"MEAN_MOTION_DDOT":0},{"OBJECT_NAME":"SL-16 R/B","OBJECT_ID":"1998-043G","EPOCH":"2026-03-31T06:31:15.180672","MEAN_MOTION":14.2605487,"ECCENTRICITY":0.00090994,"INCLINATION":98.8291,"RA_OF_ASC_NODE":43.7929,"ARG_OF_PERICENTER":316.8954,"MEAN_ANOMALY":43.1512,"EPHEMERIS_TYPE":0,"CLASSIFICATION_TYPE":"U","NORAD_CAT_ID":25400,"ELEMENT_SET_NO":999,"REV_AT_EPOCH":44206,"BSTAR":5.4461248e-5,"MEAN_MOTION_DOT":8.5e-7,"MEAN_MOTION_DDOT":0},{"OBJECT_NAME":"SL-16 R/B","OBJECT_ID":"1998-045B","EPOCH":"2026-03-31T04:29:03.344064","MEAN_MOTION":14.16193375,"ECCENTRICITY":0.00080767,"INCLINATION":71.0096,"RA_OF_ASC_NODE":136.3687,"ARG_OF_PERICENTER":335.6152,"MEAN_ANOMALY":24.4588,"EPHEMERIS_TYPE":0,"CLASSIFICATION_TYPE":"U","NORAD_CAT_ID":25407,"ELEMENT_SET_NO":999,"REV_AT_EPOCH":43014,"BSTAR":-5.9832491e-5,"MEAN_MOTION_DOT":-1.66e-6,"MEAN_MOTION_DDOT":0},{"OBJECT_NAME":"ISS (ZARYA)","OBJECT_ID":"1998-067A","EPOCH":"2026-03-31T03:11:39.798528","MEAN_MOTION":15.48671303,"ECCENTRICITY":0.00062028,"INCLINATION":51.6341,"RA_OF_ASC_NODE":326.3497,"ARG_OF_PERICENTER":253.7499,"MEAN_ANOMALY":106.2807,"EPHEMERIS_TYPE":0,"CLASSIFICATION_TYPE":"U","NORAD_CAT_ID":25544,"ELEMENT_SET_NO":999,"REV_AT_EPOCH":55965,"BSTAR":0.00021776695,"MEAN_MOTION_DOT":0.00011434,"MEAN_MOTION_DDOT":0},{"OBJECT_NAME":"CZ-4B R/B","OBJECT_ID":"1999-025C","EPOCH":"2026-03-31T02:29:38.200704","MEAN_MOTION":14.18269592,"ECCENTRICITY":0.00359859,"INCLINATION":98.6582,"RA_OF_ASC_NODE":133.8741,"ARG_OF_PERICENTER":283.6531,"MEAN_ANOMALY":95.55,"EPHEMERIS_TYPE":0,"CLASSIFICATION_TYPE":"U","NORAD_CAT_ID":25732,"ELEMENT_SET_NO":999,"REV_AT_EPOCH":39120,"BSTAR":5.7906751e-5,"MEAN_MOTION_DOT":7.7e-7,"MEAN_MOTION_DDOT":0},{"OBJECT_NAME":"OKEAN-O","OBJECT_ID":"1999-039A","EPOCH":"2026-03-31T03:30:50.808096","MEAN_MOTION":14.80370277,"ECCENTRICITY":8.528e-5,"INCLINATION":97.9398,"RA_OF_ASC_NODE":149.8151,"ARG_OF_PERICENTER":97.081,"MEAN_ANOMALY":263.0499,"EPHEMERIS_TYPE":0,"CLASSIFICATION_TYPE":"U","NORAD_CAT_ID":25860,"ELEMENT_SET_NO":999,"REV_AT_EPOCH":43756,"BSTAR":0.00012306044,"MEAN_MOTION_DOT":8.87e-6,"MEAN_MOTION_DDOT":0},{"OBJECT_NAME":"SL-16 R/B","OBJECT_ID":"1999-039B","EPOCH":"2026-03-31T04:10:04.225728","MEAN_MOTION":14.81761358,"ECCENTRICITY":0.00147369,"INCLINATION":97.9919,"RA_OF_ASC_NODE":149.2334,"ARG_OF_PERICENTER":182.4849,"MEAN_ANOMALY":177.6293,"EPHEMERIS_TYPE":0,"CLASSIFICATION_TYPE":"U","NORAD_CAT_ID":25861,"ELEMENT_SET_NO":999,"REV_AT_EPOCH":44004,"BSTAR":0.00010502872,"MEAN_MOTION_DOT":7.76e-6,"MEAN_MOTION_DDOT":0}]
