SL-16 R/B               
1 22803U 93059B   26090.07473650 -.00000157  00000+0 -53685-4 0  9995
2 22803  70.9914 326.0327 0017296 185.3137 174.7806 14.17234538682561
ARIANE 40 R/B           
1 22830U 93061H   26090.20629708  .00000271  00000+0  11510-3 0  9995
2 22830  98.4876 158.6652 0010133 214.9577 145.0943 14.32872558697187
COSMOS 2278             
1 23087U 94023A   26090.23914485 -.00000129  00000+0 -42928-4 0  9993
2 23087  71.0511 130.0149 0009227 340.5501  19.5268 14.14374960647853
SL-16 R/B               
1 23088U 94023B   26090.20523905  .00000312  00000+0  18594-3 0  9997
2 23088  71.0024  25.7006 0005501 266.0877  93.9617 14.15017188649138
SL-16 R/B               
1 23343U 94074B   26090.09910737  .00000627  00000+0  90552-4 0  9991
2 23343  97.7076 120.0470 0007444 141.9004 282.1094 14.79432610690418
SL-16 R/B               
1 23405U 94077B   26090.03711197 -.00000119  00000+0 -36084-4 0  9994
2 23405  70.9830 307.5799 0001818 195.4629 164.6438 14.15569067619256
ARIANE 40+ R/B          
1 23561U 95021B   26090.22256810  .00000383  00000+0  13599-3 0  9990
2 23561  98.4459 161.4094 0007892  81.0682 346.3847 14.39788097622342
SL-16 R/B               
1 23705U 95058B   26090.18647438 -.00000197  00000+0 -76628-4 0  9993
2 23705  71.0198 135.1258 0010175  86.1525 274.0761 14.15498443570890
SL-16 R/B               
1 24298U 96051B   26090.19985809  .00000147  00000+0  10602-3 0  9995
2 24298  70.7584 129.7120 0013347 113.0800 247.1728 14.12422015524689
ORBVIEW 2 (SEASTAR)     
1 24883U 97037A   26089.95571193  .00000364  00000+0  14293-3 0  9990
2 24883  98.8604 254.8351 0002294  24.7885 335.3409 14.35510016511528
SL-16 R/B               
1 25400U 98043G   26090.27170348  .00000085  00000+0  54461-4 0  9990
2 25400  98.8291  43.7929 0009099 316.8954  43.1512 14.26054870442066
SL-16 R/B               
1 25407U 98045B   26090.18684426 -.00000166  00000+0 -59832-4 0  9995
2 25407  71.0096 136.3687 0008076 335.6152  24.4588 14.16193375430146
ISS (ZARYA)             
1 25544U 98067A   26090.13309952  .00011434  00000+0  21777-3 0  9998
2 25544  51.6341 326.3497 0006202 253.7499 106.2807 15.48671303559657
CZ-4B R/B               
1 25732U 99025C   26090.10391436  .00000077  00000+0  57907-4 0  9993
2 25732  98.6582 133.8741 0035985 283.6531  95.5500 14.18269592391200
OKEAN-O                 
1 25860U 99039A   26090.14642139  .00000887  00000+0  12306-3 0  9995
2 25860  97.9398 149.8151 0000852  97.0810 263.0499 14.80370277437564
SL-16 R/B               
1 25861U 99039B   26090.17366002  .00000776  00000+0  10503-3 0  9995
2 25861  97.9919 149.2334 0014736 182.4849 177.6293 14.81761358440042
